{
  "links" : {
    "next" : "https://api.nasa.gov/neo/rest/v1/feed?start_date=1998-06-16&end_date=1998-06-16&detailed=true&api_key=t0TVs3DtDT2H8Oy2Zy8m2eVrNsAVKAexjcZXUckd",
    "prev" : "https://api.nasa.gov/neo/rest/v1/feed?start_date=1998-06-14&end_date=1998-06-14&detailed=true&api_key=t0TVs3DtDT2H8Oy2Zy8m2eVrNsAVKAexjcZXUckd",
    "self" : "https://api.nasa.gov/neo/rest/v1/feed?start_date=1998-06-15&end_date=1998-06-15&detailed=true&api_key=t0TVs3DtDT2H8Oy2Zy8m2eVrNsAVKAexjcZXUckd"
  },
  "element_count" : 5,
  "near_earth_objects" : {
    "1998-06-15" : [ {
      "links" : {
        "self" : "https://api.nasa.gov/neo/rest/v1/neo/3013045?api_key=t0TVs3DtDT2H8Oy2Zy8m2eVrNsAVKAexjcZXUckd"
      },
      "neo_reference_id" : "3013045",
      "name" : "(1998 HH49)",
      "nasa_jpl_url" : "http://ssd.jpl.nasa.gov/sbdb.cgi?sstr=3013045",
      "absolute_magnitude_h" : 21.3,
      "estimated_diameter" : {
        "kilometers" : {
          "estimated_diameter_min" : 0.1460679643,
          "estimated_diameter_max" : 0.3266178974
        },
        "meters" : {
          "estimated_diameter_min" : 146.0679642714,
          "estimated_diameter_max" : 326.6178974458
        },
        "miles" : {
          "estimated_diameter_min" : 0.090762397,
          "estimated_diameter_max" : 0.2029508896
        },
        "feet" : {
          "estimated_diameter_min" : 479.2256199,
          "estimated_diameter_max" : 1071.581062656
        }
      },
      "is_potentially_hazardous_asteroid" : true,
      "close_approach_data" : [ {
        "close_approach_date" : "1998-06-15",
        "epoch_date_close_approach" : 897894000000,
        "relative_velocity" : {
          "kilometers_per_second" : "9.9810213335",
          "kilometers_per_hour" : "35931.676800753",
          "miles_per_hour" : "22326.5466210012"
        },
        "miss_distance" : {
          "astronomical" : "0.2151934525",
          "lunar" : "83.7102508545",
          "kilometers" : "32192482",
          "miles" : "20003482"
        },
        "orbiting_body" : "Earth"
      } ],
      "orbital_data" : {
        "orbit_id" : "12",
        "orbit_determination_date" : "2017-04-06 09:17:50",
        "orbit_uncertainty" : "2",
        "minimum_orbit_intersection" : ".00282576",
        "jupiter_tisserand_invariant" : "4.289",
        "epoch_osculation" : "2458000.5",
        "eccentricity" : ".5021326340581344",
        "semi_major_axis" : "1.550775986245887",
        "inclination" : "8.418811223039894",
        "ascending_node_longitude" : "23.51086441386405",
        "orbital_period" : "705.3781908872437",
        "perihelion_distance" : ".7720807554381385",
        "perihelion_argument" : "287.8492278545975",
        "aphelion_distance" : "2.329471217053635",
        "perihelion_time" : "2458070.554268260785",
        "mean_anomaly" : "324.2467871849555",
        "mean_motion" : ".5103645174330982",
        "equinox" : "J2000"
      }
    }, {
      "links" : {
        "self" : "https://api.nasa.gov/neo/rest/v1/neo/3102758?api_key=t0TVs3DtDT2H8Oy2Zy8m2eVrNsAVKAexjcZXUckd"
      },
      "neo_reference_id" : "3102758",
      "name" : "(2002 AK14)",
      "nasa_jpl_url" : "http://ssd.jpl.nasa.gov/sbdb.cgi?sstr=3102758",
      "absolute_magnitude_h" : 21.5,
      "estimated_diameter" : {
        "kilometers" : {
          "estimated_diameter_min" : 0.1332155667,
          "estimated_diameter_max" : 0.2978790628
        },
        "meters" : {
          "estimated_diameter_min" : 133.2155666981,
          "estimated_diameter_max" : 297.8790627982
        },
        "miles" : {
          "estimated_diameter_min" : 0.0827762899,
          "estimated_diameter_max" : 0.1850934111
        },
        "feet" : {
          "estimated_diameter_min" : 437.0589598459,
          "estimated_diameter_max" : 977.2935443908
        }
      },
      "is_potentially_hazardous_asteroid" : false,
      "close_approach_data" : [ {
        "close_approach_date" : "1998-06-15",
        "epoch_date_close_approach" : 897894000000,
        "relative_velocity" : {
          "kilometers_per_second" : "14.4027358808",
          "kilometers_per_hour" : "51849.8491710586",
          "miles_per_hour" : "32217.4798918725"
        },
        "miss_distance" : {
          "astronomical" : "0.3105608846",
          "lunar" : "120.8081817627",
          "kilometers" : "46459248",
          "miles" : "28868438"
        },
        "orbiting_body" : "Earth"
      } ],
      "orbital_data" : {
        "orbit_id" : "16",
        "orbit_determination_date" : "2017-04-06 09:15:34",
        "orbit_uncertainty" : "2",
        "minimum_orbit_intersection" : ".0821044",
        "jupiter_tisserand_invariant" : "5.954",
        "epoch_osculation" : "2458000.5",
        "eccentricity" : ".1057701189984851",
        "semi_major_axis" : "1.016569938063376",
        "inclination" : "18.01696036072309",
        "ascending_node_longitude" : "117.3830921957112",
        "orbital_period" : "374.3728286221051",
        "perihelion_distance" : ".90904721474413",
        "perihelion_argument" : "222.3116877558508",
        "aphelion_distance" : "1.124092661382622",
        "perihelion_time" : "2458144.837690710371",
        "mean_anomaly" : "221.2036860501328",
        "mean_motion" : ".9616082484538075",
        "equinox" : "J2000"
      }
    } ]
  }
}